{
  "type": "FeatureCollection",
  "name": "A made-up park district, in flat metre coordinates",
  "features": [
    { "type": "Feature", "properties": { "kind": "park" },
      "geometry": { "type": "Polygon", "coordinates": [
        [[40, 40], [360, 30], [380, 300], [60, 330], [40, 40]],
        [[300, 250], [340, 250], [340, 290], [300, 290], [300, 250]]
      ] } },
    { "type": "Feature", "properties": { "kind": "water" },
      "geometry": { "type": "Polygon", "coordinates": [
        [[120, 120], [260, 110], [280, 170], [200, 210], [110, 180], [120, 120]]
      ] } },
    { "type": "Feature", "properties": { "kind": "building" },
      "geometry": { "type": "MultiPolygon", "coordinates": [
        [[[420, 50], [520, 50], [520, 120], [420, 120], [420, 50]]],
        [[[440, 160], [560, 160], [560, 230], [440, 230], [440, 160]]],
        [[[410, 270], [500, 270], [500, 360], [410, 360], [410, 270]]]
      ] } },
    { "type": "Feature", "properties": { "kind": "bench" },
      "geometry": { "type": "Point", "coordinates": [200, 280] } }
  ]
}
